CCSDS_OMM_VERS = 2.0
CREATION_DATE  = 
ORIGINATOR     = 

OBJECT_NAME    = H-2A R/B
OBJECT_ID      = 2006-002B
CENTER_NAME    = EARTH
REF_FRAME      = TEME
TIME_SYSTEM    = UTC
MEAN_ELEMENT_THEORY = SGP/SGP4

EPOCH          = 2026-04-03T09:58:23.998656
MEAN_MOTION    = 15.17012148
ECCENTRICITY   = .00524494
INCLINATION    = 98.2462
RA_OF_ASC_NODE = 242.5830
ARG_OF_PERICENTER = 156.6871
MEAN_ANOMALY   = 203.6756

EPHEMERIS_TYPE = 0
CLASSIFICATION_TYPE = U
NORAD_CAT_ID   = 28932
ELEMENT_SET_NO = 999
REV_AT_EPOCH   = 9818
BSTAR          = .89839264E-3
MEAN_MOTION_DOT = .1835E-3
MEAN_MOTION_DDOT = 0

CCSDS_OMM_VERS = 2.0
CREATION_DATE  = 
ORIGINATOR     = 

OBJECT_NAME    = RESURS-DK 1
OBJECT_ID      = 2006-021A
CENTER_NAME    = EARTH
REF_FRAME      = TEME
TIME_SYSTEM    = UTC
MEAN_ELEMENT_THEORY = SGP/SGP4

EPOCH          = 2026-04-03T14:16:56.380800
MEAN_MOTION    = 15.12902821
ECCENTRICITY   = .00018995
INCLINATION    = 69.9335
RA_OF_ASC_NODE = 172.5971
ARG_OF_PERICENTER = 37.3825
MEAN_ANOMALY   = 322.7473

EPHEMERIS_TYPE = 0
CLASSIFICATION_TYPE = U
NORAD_CAT_ID   = 29228
ELEMENT_SET_NO = 999
REV_AT_EPOCH   = 9129
BSTAR          = .24586394E-3
MEAN_MOTION_DOT = .4233E-4
MEAN_MOTION_DDOT = 0

CCSDS_OMM_VERS = 2.0
CREATION_DATE  = 
ORIGINATOR     = 

OBJECT_NAME    = CZ-4B R/B
OBJECT_ID      = 2006-046C
CENTER_NAME    = EARTH
REF_FRAME      = TEME
TIME_SYSTEM    = UTC
MEAN_ELEMENT_THEORY = SGP/SGP4

EPOCH          = 2026-04-03T14:35:46.871232
MEAN_MOTION    = 15.17173343
ECCENTRICITY   = .00332732
INCLINATION    = 97.5538
RA_OF_ASC_NODE = 138.4474
ARG_OF_PERICENTER = 178.5695
MEAN_ANOMALY   = 181.5640

EPHEMERIS_TYPE = 0
CLASSIFICATION_TYPE = U
NORAD_CAT_ID   = 29507
ELEMENT_SET_NO = 999
REV_AT_EPOCH   = 6382
BSTAR          = .46237918E-3
MEAN_MOTION_DOT = .9247E-4
MEAN_MOTION_DDOT = 0

CCSDS_OMM_VERS = 2.0
CREATION_DATE  = 
ORIGINATOR     = 

OBJECT_NAME    = CZ-2C R/B
OBJECT_ID      = 2007-010B
CENTER_NAME    = EARTH
REF_FRAME      = TEME
TIME_SYSTEM    = UTC
MEAN_ELEMENT_THEORY = SGP/SGP4

EPOCH          = 2026-04-03T07:30:45.925056
MEAN_MOTION    = 14.20255877
ECCENTRICITY   = .00582853
INCLINATION    = 98.4004
RA_OF_ASC_NODE = 205.3608
ARG_OF_PERICENTER = 221.7202
MEAN_ANOMALY   = 137.9524

EPHEMERIS_TYPE = 0
CLASSIFICATION_TYPE = U
NORAD_CAT_ID   = 31114
ELEMENT_SET_NO = 999
REV_AT_EPOCH   = 98321
BSTAR          = .12634647E-3
MEAN_MOTION_DOT = .233E-5
MEAN_MOTION_DDOT = 0

CCSDS_OMM_VERS = 2.0
CREATION_DATE  = 
ORIGINATOR     = 

OBJECT_NAME    = COSMO-SKYMED 1
OBJECT_ID      = 2007-023A
CENTER_NAME    = EARTH
REF_FRAME      = TEME
TIME_SYSTEM    = UTC
MEAN_ELEMENT_THEORY = SGP/SGP4

EPOCH          = 2026-04-03T14:27:42.320160
MEAN_MOTION    = 14.96728508
ECCENTRICITY   = .00015225
INCLINATION    = 97.8867
RA_OF_ASC_NODE = 284.8382
ARG_OF_PERICENTER = 101.4353
MEAN_ANOMALY   = 258.7039

EPHEMERIS_TYPE = 0
CLASSIFICATION_TYPE = U
NORAD_CAT_ID   = 31598
ELEMENT_SET_NO = 999
REV_AT_EPOCH   = 1863
BSTAR          = .59548022E-3
MEAN_MOTION_DOT = .6748E-4
MEAN_MOTION_DDOT = 0

CCSDS_OMM_VERS = 2.0
CREATION_DATE  = 
ORIGINATOR     = 

OBJECT_NAME    = COSMOS 2428
OBJECT_ID      = 2007-029A
CENTER_NAME    = EARTH
REF_FRAME      = TEME
TIME_SYSTEM    = UTC
MEAN_ELEMENT_THEORY = SGP/SGP4

EPOCH          = 2026-04-03T14:18:26.506368
MEAN_MOTION    = 14.12948958
ECCENTRICITY   = .00096974
INCLINATION    = 70.9424
RA_OF_ASC_NODE = 151.0698
ARG_OF_PERICENTER = 251.2339
MEAN_ANOMALY   = 108.7730

EPHEMERIS_TYPE = 0
CLASSIFICATION_TYPE = U
NORAD_CAT_ID   = 31792
ELEMENT_SET_NO = 999
REV_AT_EPOCH   = 96761
BSTAR          = .31289215E-4
MEAN_MOTION_DOT = .1E-6
MEAN_MOTION_DDOT = 0

CCSDS_OMM_VERS = 2.0
CREATION_DATE  = 
ORIGINATOR     = 

OBJECT_NAME    = SL-16 R/B
OBJECT_ID      = 2007-029B
CENTER_NAME    = EARTH
REF_FRAME      = TEME
TIME_SYSTEM    = UTC
MEAN_ELEMENT_THEORY = SGP/SGP4

EPOCH          = 2026-04-03T12:44:09.642624
MEAN_MOTION    = 14.14843981
ECCENTRICITY   = .00028908
INCLINATION    = 70.9740
RA_OF_ASC_NODE = 120.1684
ARG_OF_PERICENTER = 276.9700
MEAN_ANOMALY   = 193.7472

EPHEMERIS_TYPE = 0
CLASSIFICATION_TYPE = U
NORAD_CAT_ID   = 31793
ELEMENT_SET_NO = 999
REV_AT_EPOCH   = 96888
BSTAR          = -.13257789E-4
MEAN_MOTION_DOT = -.73E-6
MEAN_MOTION_DDOT = 0

CCSDS_OMM_VERS = 2.0
CREATION_DATE  = 
ORIGINATOR     = 

OBJECT_NAME    = KORONAS-FOTON
OBJECT_ID      = 2009-003A
CENTER_NAME    = EARTH
REF_FRAME      = TEME
TIME_SYSTEM    = UTC
MEAN_ELEMENT_THEORY = SGP/SGP4

EPOCH          = 2026-04-03T12:38:52.984896
MEAN_MOTION    = 15.44043681
ECCENTRICITY   = .00114655
INCLINATION    = 82.4283
RA_OF_ASC_NODE = 250.0389
ARG_OF_PERICENTER = 68.9365
MEAN_ANOMALY   = 291.3107

EPHEMERIS_TYPE = 0
CLASSIFICATION_TYPE = U
NORAD_CAT_ID   = 33504
ELEMENT_SET_NO = 999
REV_AT_EPOCH   = 94957
BSTAR          = .48381936E-3
MEAN_MOTION_DOT = .22195E-3
MEAN_MOTION_DDOT = 0

CCSDS_OMM_VERS = 2.0
CREATION_DATE  = 
ORIGINATOR     = 

OBJECT_NAME    = CZ-2C R/B
OBJECT_ID      = 2011-030B
CENTER_NAME    = EARTH
REF_FRAME      = TEME
TIME_SYSTEM    = UTC
MEAN_ELEMENT_THEORY = SGP/SGP4

EPOCH          = 2026-04-03T15:02:44.109024
MEAN_MOTION    = 14.81313917
ECCENTRICITY   = .00509179
INCLINATION    = 97.8589
RA_OF_ASC_NODE = 50.3994
ARG_OF_PERICENTER = 269.2728
MEAN_ANOMALY   = 264.3422

EPHEMERIS_TYPE = 0
CLASSIFICATION_TYPE = U
NORAD_CAT_ID   = 37731
ELEMENT_SET_NO = 999
REV_AT_EPOCH   = 79378
BSTAR          = .31060091E-3
MEAN_MOTION_DOT = .2423E-4
MEAN_MOTION_DDOT = 0

CCSDS_OMM_VERS = 2.0
CREATION_DATE  = 
ORIGINATOR     = 

OBJECT_NAME    = H-2A R/B
OBJECT_ID      = 2012-025E
CENTER_NAME    = EARTH
REF_FRAME      = TEME
TIME_SYSTEM    = UTC
MEAN_ELEMENT_THEORY = SGP/SGP4

EPOCH          = 2026-04-03T11:43:31.773216
MEAN_MOTION    = 14.95346628
ECCENTRICITY   = .00431668
INCLINATION    = 98.4774
RA_OF_ASC_NODE = 62.5303
ARG_OF_PERICENTER = 230.7473
MEAN_ANOMALY   = 128.9912

EPHEMERIS_TYPE = 0
CLASSIFICATION_TYPE = U
NORAD_CAT_ID   = 38341
ELEMENT_SET_NO = 999
REV_AT_EPOCH   = 75192
BSTAR          = .39457346E-3
MEAN_MOTION_DOT = .4364E-4
MEAN_MOTION_DDOT = 0

CCSDS_OMM_VERS = 2.0
CREATION_DATE  = 
ORIGINATOR     = 

OBJECT_NAME    = SHIJIAN-16 (SJ-16)
OBJECT_ID      = 2013-057A
CENTER_NAME    = EARTH
REF_FRAME      = TEME
TIME_SYSTEM    = UTC
MEAN_ELEMENT_THEORY = SGP/SGP4

EPOCH          = 2026-04-03T15:12:31.072608
MEAN_MOTION    = 14.92439066
ECCENTRICITY   = .00153172
INCLINATION    = 74.9715
RA_OF_ASC_NODE = 137.8674
ARG_OF_PERICENTER = 47.9004
MEAN_ANOMALY   = 312.3484

EPHEMERIS_TYPE = 0
CLASSIFICATION_TYPE = U
NORAD_CAT_ID   = 39358
ELEMENT_SET_NO = 999
REV_AT_EPOCH   = 67522
BSTAR          = .14927685E-3
MEAN_MOTION_DOT = .1504E-4
MEAN_MOTION_DDOT = 0

CCSDS_OMM_VERS = 2.0
CREATION_DATE  = 
ORIGINATOR     = 

OBJECT_NAME    = SL-4 R/B
OBJECT_ID      = 2014-021B
CENTER_NAME    = EARTH
REF_FRAME      = TEME
TIME_SYSTEM    = UTC
MEAN_ELEMENT_THEORY = SGP/SGP4

EPOCH          = 2026-04-03T14:50:50.524512
MEAN_MOTION    = 15.40118105
ECCENTRICITY   = .00945472
INCLINATION    = 51.6059
RA_OF_ASC_NODE = 215.5831
ARG_OF_PERICENTER = 193.9198
MEAN_ANOMALY   = 165.9178

EPHEMERIS_TYPE = 0
CLASSIFICATION_TYPE = U
NORAD_CAT_ID   = 39679
ELEMENT_SET_NO = 999
REV_AT_EPOCH   = 66011
BSTAR          = .56619371E-3
MEAN_MOTION_DOT = .26657E-3
MEAN_MOTION_DDOT = 0

