H-2A R/B                
1 28932U 06002B   26093.41555554  .00018350  00000+0  89839-3 0  9992
2 28932  98.2462 242.5830 0052449 156.6871 203.6756 15.17012148 98184
RESURS-DK 1             
1 29228U 06021A   26093.59509700  .00004233  00000+0  24586-3 0  9996
2 29228  69.9335 172.5971 0001899  37.3825 322.7473 15.12902821 91297
CZ-4B R/B               
1 29507U 06046C   26093.60818138  .00009247  00000+0  46238-3 0  9991
2 29507  97.5538 138.4474 0033273 178.5695 181.5640 15.17173343 63821
CZ-2C R/B               
1 31114U 07010B   26093.31303154  .00000233  00000+0  12635-3 0  9995
2 31114  98.4004 205.3608 0058285 221.7202 137.9524 14.20255877983210
COSMO-SKYMED 1          
1 31598U 07023A   26093.60257315  .00006748  00000+0  59548-3 0  9995
2 31598  97.8867 284.8382 0001522 101.4353 258.7039 14.96728508 18637
COSMOS 2428             
1 31792U 07029A   26093.59614012  .00000010  00000+0  31289-4 0  9995
2 31792  70.9424 151.0698 0009697 251.2339 108.7730 14.12948958967612
SL-16 R/B               
1 31793U 07029B   26093.53066716 -.00000073  00000+0 -13258-4 0  9999
2 31793  70.9740 120.1684 0002890 276.9700 193.7472 14.14843981968889
KORONAS-FOTON           
1 33504U 09003A   26093.52700214  .00022195  00000+0  48382-3 0  9994
2 33504  82.4283 250.0389 0011465  68.9365 291.3107 15.44043681949578
CZ-2C R/B               
1 37731U 11030B   26093.62689941  .00002423  00000+0  31060-3 0  9994
2 37731  97.8589  50.3994 0050917 269.2728 264.3422 14.81313917793782
H-2A R/B                
1 38341U 12025E   26093.48856219  .00004364  00000+0  39457-3 0  9999
2 38341  98.4774  62.5303 0043166 230.7473 128.9912 14.95346628751929
SHIJIAN-16 (SJ-16)      
1 39358U 13057A   26093.63369297  .00001504  00000+0  14928-3 0  9995
2 39358  74.9715 137.8674 0015317  47.9004 312.3484 14.92439066675221
SL-4 R/B                
1 39679U 14021B   26093.61864033  .00026657  00000+0  56619-3 0  9998
2 39679  51.6059 215.5831 0094547 193.9198 165.9178 15.40118105660113
